{
  "type": "FeatureCollection",
  "features": [
    {
      "type": "Feature",
      "properties": {
        "name": "戦場ヶ原自然研究路(サンプル)",
        "description": "実証用のサンプルルートです。実際のあるき道データに差し替えて使用してください。"
      },
      "geometry": {
        "type": "LineString",
        "coordinates": [
          [139.4495, 36.7975],
          [139.4483, 36.8010],
          [139.4470, 36.8050],
          [139.4460, 36.8090],
          [139.4455, 36.8130],
          [139.4450, 36.8170],
          [139.4443, 36.8210],
          [139.4443, 36.8265]
        ]
      }
    }
  ]
}
